IRIDIUM 156             
1 43576U 18061H   24343.89956036  .00000467  00000+0  15952-3 0  9994
2 43576  86.3950 288.7603 0001849  77.3110 282.8293 14.34221395333785
IRIDIUM 164             
1 43577U 18061J   24343.95030439  .00000162  00000+0  50768-4 0  9999
2 43577  86.3954 288.7706 0002060  91.8213 268.3219 14.34214951333838
IRIDIUM 159             
1 43578U 18061K   24343.91859373  .00000711  00000+0  24682-3 0  9997
2 43578  86.3952 288.7322 0002243  86.8728 273.2724 14.34219016333797
IRIDIUM 180             
1 43922U 19002A   24343.77854521  .00000117  00000+0  34857-4 0  9996
2 43922  86.3993 225.6612 0002057  82.7465 277.3964 14.34210571309389
IRIDIUM 176             
1 43923U 19002B   24343.93080505  .00002318  00000+0  36378-3 0  9992
2 43923  86.6117 225.6054 0003186  82.3267 277.8312 14.72235712317557
IRIDIUM 168             
1 43924U 19002C   24343.91173114  .00000637  00000+0  22020-3 0  9991
2 43924  86.3994 225.6670 0002111  83.5121 276.6315 14.34224076309382
IRIDIUM 173             
1 43925U 19002D   24344.17813876  .00000649  00000+0  22477-3 0  9996
2 43925  86.3989 225.4675 0002085  81.3735 278.7697 14.34219537309413
IRIDIUM 169             
1 43926U 19002E   24344.12763572  .00000985  00000+0  31559-3 0  9993
2 43926  86.4227 257.1034 0003066  48.8072 311.3390 14.38620748310424
IRIDIUM 172             
1 43927U 19002F   24343.75318078  .00000429  00000+0  14626-3 0  9998
2 43927  86.3991 225.6511 0002145  86.8621 273.2821 14.34220419309353
IRIDIUM 175             
1 43928U 19002G   24343.85746019  .00002224  00000+0  34873-3 0  9991
2 43928  86.1526 188.9660 0001357  44.6263 315.5063 14.72247448317530
IRIDIUM 171             
1 43929U 19002H   24343.94346119  .00000600  00000+0  20722-3 0  9993
2 43929  86.3999 225.8164 0001630  89.3532 270.7851 14.34217071309373
IRIDIUM 170             
1 43930U 19002J   24343.93698045  .00002279  00000+0  35742-3 0  9994
2 43930  86.6117 225.6081 0002387  79.6815 280.4671 14.72259830317561
IRIDIUM 167             
1 43931U 19002K   24344.14641258  .00000656  00000+0  22708-3 0  9998
2 43931  86.3991 225.5045 0001706  77.5522 282.5864 14.34223204309409
IRIDIUM 181             
1 56726U 23068S   24343.92335000  .00001044  00000+0  30226-3 0  9997
2 56726  86.6854 287.7287 0001936  92.3795 267.7628 14.43607191 82341
IRIDIUM 177             
1 56727U 23068T   24343.77256478  .00002976  00000+0  38813-3 0  9997
2 56727  86.1987 232.4457 0002184  78.5541 281.5925 14.80226518 84203
IRIDIUM 174             
1 56728U 23068U   24343.76715688  .00003331  00000+0  43488-3 0  9990
2 56728  86.1992 232.5658 0002175  93.8243 266.3227 14.80225162 84203
IRIDIUM 178             
1 56729U 23068V   24343.82934229  .00003711  00000+0  48477-3 0  9997
2 56729  86.5774 258.2643 0001829  95.1052 265.0379 14.80239476 84211
IRIDIUM 179             
1 56730U 23068W   24344.16193662  .00003614  00000+0  47207-3 0  9997
2 56730  86.6780 264.4609 0002285  88.5796 271.5687 14.80237875 84260
